STARLINK-31705          
1 59382U 24062J   26068.90827200 -.00000589  00000+0 -77398-5 0  9993
2 59382  53.1595 254.7329 0001898 107.0611 253.0598 15.30192850109669
TEVEL2-2                
1 63219U 25052K   26068.64848259  .00020339  00000+0  69428-3 0  9991
2 63219  97.3987 324.7700 0004693 105.7930 254.3828 15.30343745 54855
